APRIZESAT 2             
1 28366U 04025A   26161.74419075  .00000139  00000+0  56567-4 0  9994
2 28366  98.1009 328.0895 0104254 269.5369  89.3872 14.38033354150710
SAUDICOMSAT 1           
1 28369U 04025D   26161.96657719  .00000330  00000+0  86764-4 0  9995
2 28369  98.5771 171.9302 0033007  44.2783 316.1046 14.55468703163229
SAUDICOMSAT 2           
1 28370U 04025E   26161.98353126  .00000222  00000+0  69119-4 0  9999
2 28370  98.6641 174.0541 0054142 278.6996  80.8067 14.49977663159203
APRIZESAT 1             
1 28372U 04025G   26162.29852331  .00000171  00000+0  54151-4 0  9991
2 28372  98.6304 172.8638 0044741 171.5640 188.6316 14.51773946161056
NANOSAT-1               
1 28493U 04049B   26161.94977148  .00000870  00000+0  12191-3 0  9999
2 28493  98.2268 298.4586 0003144 329.2450  30.8576 14.80147249154528
SAUDICOMSAT 7           
1 31119U 07012C   26162.17513132  .00000387  00000+0  78512-4 0  9999
2 31119  98.3776 136.1839 0054898 214.2339 145.5321 14.66104532 21552
SAUDICOMSAT 6           
1 31121U 07012E   26162.13831282  .00000539  00000+0  11267-3 0  9999
2 31121  98.4096 129.5423 0071498 346.7243  13.2074 14.62550824 19307
SAUDICOMSAT 5           
1 31124U 07012H   26161.88434418  .00000488  00000+0  92511-4 0  9998
2 31124  98.3486 136.6357 0048131 144.1397 216.3054 14.68148753 22673
SAUDICOMSAT 3           
1 31125U 07012J   26162.19604121  .00000712  00000+0  12424-3 0  9998
2 31125  98.3141 137.5025 0040447  71.5746 288.9851 14.70695503 23941
SAUDICOMSAT 4           
1 31127U 07012L   26161.86895636  .00000444  00000+0  91468-4 0  9994
2 31127  98.3979 134.3105 0062067 278.3986  81.0183 14.64505997 20364
APRIZESAT 4             
1 35684U 09041D   26162.18819018  .00000562  00000+0  73667-4 0  9998
2 35684  98.1411 237.3890 0042817 342.8192  17.1570 14.83871257910473
APRIZESAT 3             
1 35686U 09041F   26162.14705922  .00001154  00000+0  10421-3 0  9990
2 35686  98.2052 315.0821 0062761  87.1636 273.6765 14.96222440915475
S-NET D                 
1 43186U 18014G   26162.19409217  .00004119  00000+0  21404-3 0  9994
2 43186  97.5372  67.0223 0009494  48.4267 311.7779 15.16615806457857
S-NET B                 
1 43187U 18014H   26162.20542910  .00004431  00000+0  23012-3 0  9999
2 43187  97.5377  67.0199 0009998  43.9462 316.2564 15.16585828457853
S-NET A                 
1 43188U 18014J   26162.19300148  .00004083  00000+0  21211-3 0  9995
2 43188  97.5386  67.2150 0009884  44.6927 315.5101 15.16623590457859
S-NET C                 
1 43189U 18014K   26162.20927486  .00004589  00000+0  23820-3 0  9997
2 43189  97.5404  67.3051 0011077  36.9313 323.2681 15.16577817456401
SALSAT                  
1 46495U 20068K   26162.25849645  .00006276  00000+0  22076-3 0  9994
2 46495  97.8851 164.9624 0008555 332.6699  27.4089 15.29713226314456
OOV-CUBE (TUBSAT-30)    
1 60240U 24128F   26161.60113742  .00001981  00000+0  16003-3 0  9990
2 60240  61.9950 248.5377 0045443 132.2861 228.2097 15.02746418105120
LPNTSAT-001 (IOD-1)     
1 68408U 26065A   26162.14618267  .00002565  00000+0  12719-3 0  9997
2 68408  97.4032  42.7837 0017317  31.1202 329.1054 15.18505738 11348
